NORAD_CAT_ID,OBJECT_NAME,OBJECT_TYPE,EPOCH,MEAN_MOTION,ECCENTRICITY,INCLINATION,RA_OF_ASC_NODE,ARG_OF_PERICENTER,MEAN_ANOMALY,BSTAR,MEAN_MOTION_DOT,MEAN_MOTION_DDOT,TLE_LINE0,TLE_LINE1,TLE_LINE2,SEMIMAJOR_AXIS,PERIOD,APOGEE,PERIGEE,DECAYED
52626.0,STARLINK-3990,PAYLOAD,2023-10-12 08:01:40,15.08850038,0.0001532,53.2157,256.6988,103.0113,257.105,0.00021186,3.086e-05,0.0,0 STARLINK-3990,1 52626U 22052AE  23285.33449394  .00003086  00000-0  21186-3 0  9999,2 52626  53.2157 256.6988 0001532 103.0113 257.1050 15.08850038 78238,6917.85,95.437,540.775,538.655,0.0
52626.0,STARLINK-3990,PAYLOAD,2023-10-13 04:41:41,15.0884712,0.0001454,53.2168,252.8342,97.5427,262.573,0.0001179,1.589e-05,0.0,0 STARLINK-3990,1 52626U 22052AE  23286.19561717  .00001589  00000-0  11790-3 0  9994,2 52626  53.2168 252.8342 0001454  97.5427 262.5730 15.08847120 78749,6917.859,95.437,540.729,538.718,0.0
52626.0,STARLINK-3990,PAYLOAD,2023-10-13 22:10:56,15.08842239,0.0001317,53.217,249.5638,95.1099,265.0043,0.00015845,2.235e-05,0.0,0 STARLINK-3990,1 52626U 22052AE  23286.92425943  .00002235  00000-0  15845-3 0  9999,2 52626  53.2170 249.5638 0001317  95.1099 265.0043 15.08842239 78471,6917.874,95.437,540.65,538.827,0.0
52626.0,STARLINK-3990,PAYLOAD,2023-10-14 04:32:27,15.08861683,0.0001347,53.2167,248.373,103.5718,256.5424,0.00040853,6.224e-05,0.0,0 STARLINK-3990,1 52626U 22052AE  23287.18920926  .00006224  00000-0  40853-3 0  9998,2 52626  53.2167 248.3730 0001347 103.5718 256.5424 15.08861683 78890,6917.814,95.436,540.611,538.747,0.0
52626.0,STARLINK-3990,PAYLOAD,2023-10-14 14:04:46,15.08849378,0.000135,53.217,246.5882,92.4238,267.6908,0.0001703,2.424e-05,0.0,0 STARLINK-3990,1 52626U 22052AE  23287.58665336  .00002424  00000-0  17030-3 0  9992,2 52626  53.2170 246.5882 0001350  92.4238 267.6908 15.08849378 78571,6917.852,95.437,540.651,538.783,0.0
52626.0,STARLINK-3990,PAYLOAD,2023-10-14 20:26:20,15.08827567,0.0002199,53.217,245.4006,82.3919,277.7323,-0.00018692,-3.261e-05,0.0,0 STARLINK-3990,1 52626U 22052AE  23287.85162732 -.00003261  00000-0 -18692-3 0  9991,2 52626  53.2170 245.4006 0002199  82.3919 277.7323 15.08827567 78998,6917.918,95.438,541.305,538.262,0.0
52626.0,STARLINK-3990,PAYLOAD,2023-10-14 22:01:43,15.08827246,0.0002184,53.2172,245.103,80.4086,279.7153,-0.00028254,-4.781e-05,0.0,0 STARLINK-3990,1 52626U 22052AE  23287.91786429 -.00004781  00000-0 -28254-3 0  9996,2 52626  53.2172 245.1030 0002184  80.4086 279.7153 15.08827246 78629,6917.919,95.438,541.295,538.273,0.0
52626.0,STARLINK-3990,PAYLOAD,2023-10-15 13:55:35,15.08831183,0.0001641,53.2185,242.1309,93.9981,266.1199,6.0183e-05,6.7e-06,0.0,0 STARLINK-3990,1 52626U 22052AE  23288.58027050  .00000670  00000-0  60183-4 0  9997,2 52626  53.2185 242.1309 0001641  93.9981 266.1199 15.08831183 78725,6917.907,95.438,540.908,538.637,0.0
52626.0,STARLINK-3990,PAYLOAD,2023-10-16 01:03:17,15.0885024,0.0001364,53.2164,240.0481,89.3109,270.8039,0.0011096,0.0001742,0.0,0 STARLINK-3990,1 52626U 22052AE  23289.04394936  .00017420  00000-0  11096-2 0  9997,2 52626  53.2164 240.0481 0001364  89.3109 270.8039 15.08850240 79173,6917.849,95.437,540.658,538.77,0.0
52626.0,STARLINK-3990,PAYLOAD,2023-10-16 05:49:26,15.08872415,0.0001369,53.2163,239.1564,89.8135,270.3014,0.001944,0.00030814,0.0,0 STARLINK-3990,1 52626U 22052AE  23289.24266642  .00030814  00000-0  19440-2 0  9994,2 52626  53.2163 239.1564 0001369  89.8135 270.3014 15.08872415 79202,6917.781,95.436,540.593,538.699,0.0
52626.0,STARLINK-3990,PAYLOAD,2023-10-18 02:20:14,15.08840172,0.0001537,53.2162,230.8279,106.7315,253.3846,0.0011026,0.00017303,0.0,0 STARLINK-3990,1 52626U 22052AE  23291.09738546  .00017303  00000-0  11026-2 0  9997,2 52626  53.2162 230.8279 0001537 106.7315 253.3846 15.08840172 79487,6917.88,95.438,540.808,538.682,0.0
52626.0,STARLINK-3990,PAYLOAD,2023-10-18 13:27:56,15.08836378,0.0001626,53.2171,228.7434,119.1528,240.9627,0.00050014,7.68e-05,0.0,0 STARLINK-3990,1 52626U 22052AE  23291.56106589  .00007680  00000-0  50014-3 0  9993,2 52626  53.2171 228.7434 0001626 119.1528 240.9627 15.08836378 79559,6917.891,95.438,540.881,538.632,0.0
52626.0,STARLINK-3990,PAYLOAD,2023-10-19 05:21:47,15.08853675,0.0001606,53.2165,225.7714,101.6985,258.4187,0.0014301,0.00022554,0.0,0 STARLINK-3990,1 52626U 22052AE  23292.22346657  .00022554  00000-0  14301-2 0  9994,2 52626  53.2165 225.7714 0001606 101.6985 258.4187 15.08853675 79274,6917.839,95.437,540.815,538.593,0.0
52626.0,STARLINK-3990,PAYLOAD,2023-10-20 02:01:47,15.08867844,0.0001462,53.2162,221.9082,105.8492,254.2662,0.00093797,0.00014683,0.0,0 STARLINK-3990,1 52626U 22052AE  23293.08457997  .00014683  00000-0  93797-3 0  9990,2 52626  53.2162 221.9082 0001462 105.8492 254.2662 15.08867844 79787,6917.795,95.436,540.672,538.649,0.0
52626.0,STARLINK-3990,PAYLOAD,2023-10-20 05:12:33,15.08870713,0.0001467,53.2163,221.3132,106.1575,253.9579,0.00092461,0.0001447,0.0,0 STARLINK-3990,1 52626U 22052AE  23293.21705747  .00014470  00000-0  92461-3 0  9995,2 52626  53.2163 221.3132 0001467 106.1575 253.9579 15.08870713 79422,6917.787,95.436,540.666,538.637,0.0
52626.0,STARLINK-3990,PAYLOAD,2023-10-20 19:31:02,15.08835047,0.0001589,53.2175,218.6365,96.8349,263.2824,0.00043048,6.569e-05,0.0,0 STARLINK-3990,1 52626U 22052AE  23293.81322659  .00006569  00000-0  43048-3 0  9995,2 52626  53.2175 218.6365 0001589  96.8349 263.2824 15.08835047 79890,6917.896,95.438,540.86,538.661,0.0
52626.0,STARLINK-3990,PAYLOAD,2023-10-20 22:41:49,15.08832388,0.0001511,53.2176,218.0415,105.4793,254.6366,0.00044842,6.854e-05,0.0,0 STARLINK-3990,1 52626U 22052AE  23293.94570813  .00006854  00000-0  44842-3 0  9996,2 52626  53.2176 218.0415 0001511 105.4793 254.6366 15.08832388 79537,6917.904,95.438,540.814,538.723,0.0
52626.0,STARLINK-3990,PAYLOAD,2023-10-21 05:03:21,15.08834148,0.0001461,53.2168,216.8519,93.4051,266.7109,0.00027382,4.072e-05,0.0,0 STARLINK-3990,1 52626U 22052AE  23294.21067039  .00004072  00000-0  27382-3 0  9998,2 52626  53.2168 216.8519 0001461  93.4051 266.7109 15.08834148 79957,6917.898,95.438,540.774,538.753,0.0
52626.0,STARLINK-3990,PAYLOAD,2023-10-21 11:24:54,15.08840714,0.0001519,53.2177,215.6633,104.0375,256.0787,0.00041936,6.393e-05,0.0,0 STARLINK-3990,1 52626U 22052AE  23294.47562912  .00006393  00000-0  41936-3 0  9995,2 52626  53.2177 215.6633 0001519 104.0375 256.0787 15.08840714 79616,6917.878,95.438,540.794,538.692,0.0
52626.0,STARLINK-3990,PAYLOAD,2023-10-21 19:21:49,15.08853671,0.0001273,53.2164,214.1767,86.8398,273.274,0.00071701,0.00011146,0.0,0 STARLINK-3990,1 52626U 22052AE  23294.80682640  .00011146  00000-0  71701-3 0  9998,2 52626  53.2164 214.1767 0001273  86.8398 273.2740 15.08853671 80048,6917.839,95.437,540.584,538.823,0.0
52626.0,STARLINK-3990,PAYLOAD,2023-10-21 22:32:35,15.08864487,0.0001331,53.2163,213.5826,91.2012,268.9133,0.0010878,0.00017078,0.0,0 STARLINK-3990,1 52626U 22052AE  23294.93930398  .00017078  00000-0  10878-2 0  9995,2 52626  53.2163 213.5826 0001331  91.2012 268.9133 15.08864487 79686,6917.806,95.436,540.591,538.75,0.0
52626.0,STARLINK-3990,PAYLOAD,2023-10-22 01:43:21,15.08875776,0.0001274,53.2159,212.9893,88.7254,271.3884,0.0013192,0.0002079,0.0,0 STARLINK-3990,1 52626U 22052AE  23295.07178011  .00020790  00000-0  13192-2 0  9994,2 52626  53.2159 212.9893 0001274  88.7254 271.3884 15.08875776 80083,6917.771,95.435,540.517,538.755,0.0
52626.0,STARLINK-3990,PAYLOAD,2023-10-22 22:23:23,15.08837216,0.0001351,53.2163,209.1227,95.6135,264.5011,0.0011475,0.0001802,0.0,0 STARLINK-3990,1 52626U 22052AE  23295.93290969  .00018020  00000-0  11475-2 0  9991,2 52626  53.2163 209.1227 0001351  95.6135 264.5011 15.08837216 79832,6917.889,95.438,540.689,538.819,0.0
52626.0,STARLINK-3990,PAYLOAD,2023-10-23 01:34:09,15.08825449,0.000146,53.2162,208.5252,56.2825,303.8306,0.0005531,8.522e-05,0.0,0 STARLINK-3990,1 52626U 22052AE  23296.06539305  .00008522  00000-0  55310-3 0  9999,2 52626  53.2162 208.5252 0001460  56.2825 303.8306 15.08825449 80237,6917.925,95.438,540.8,538.78,0.0
52626.0,STARLINK-3990,PAYLOAD,2023-10-23 22:14:11,15.08846475,0.0001332,53.2156,204.6637,78.1157,281.9984,0.001203,0.00018913,0.0,0 STARLINK-3990,1 52626U 22052AE  23296.92651780  .00018913  00000-0  12030-2 0  9992,2 52626  53.2156 204.6637 0001332  78.1157 281.9984 15.08846475 79983,6917.861,95.437,540.647,538.804,0.0
52626.0,STARLINK-3990,PAYLOAD,2023-10-24 03:00:20,15.08854919,0.000134,53.2155,203.7697,71.7278,288.386,0.0010328,0.00016194,0.0,0 STARLINK-3990,1 52626U 22052AE  23297.12523502  .00016194  00000-0  10328-2 0  9992,2 52626  53.2155 203.7697 0001340  71.7278 288.3860 15.08854919 80393,6917.835,95.437,540.627,538.773,0.0
52626.0,STARLINK-3990,PAYLOAD,2023-10-25 02:51:06,15.08856406,0.0001505,53.2167,199.3079,75.8426,284.2734,0.00047802,7.331e-05,0.0,0 STARLINK-3990,1 52626U 22052AE  23298.11882953  .00007331  00000-0  47802-3 0  9991,2 52626  53.2167 199.3079 0001505  75.8426 284.2734 15.08856406 80548,6917.83,95.437,540.736,538.654,0.0
52626.0,STARLINK-3990,PAYLOAD,2023-10-25 21:55:44,15.08842493,0.0001695,53.2173,195.7374,96.7479,263.3706,6.0463e-05,6.74e-06,0.0,0 STARLINK-3990,1 52626U 22052AE  23298.91371246  .00000674  00000-0  60463-4 0  9999,2 52626  53.2173 195.7374 0001695  96.7479 263.3706 15.08842493 80282,6917.873,95.437,540.91,538.565,0.0
52626.0,STARLINK-3990,PAYLOAD,2023-10-26 02:41:54,15.08843449,0.0001613,53.2174,194.8473,86.5066,273.6111,0.00011086,1.477e-05,0.0,0 STARLINK-3990,1 52626U 22052AE  23299.11243338  .00001477  00000-0  11086-3 0  9990,2 52626  53.2174 194.8473 0001613  86.5066 273.6111 15.08843449 80693,6917.87,95.437,540.851,538.619,0.0
52626.0,STARLINK-3990,PAYLOAD,2023-10-26 21:46:32,15.08840671,0.0001633,53.2175,191.2774,94.2757,265.8422,7.3297e-05,8.79e-06,0.0,0 STARLINK-3990,1 52626U 22052AE  23299.90731659  .00000879  00000-0  73297-4 0  9993,2 52626  53.2175 191.2774 0001633  94.2757 265.8422 15.08840671 80438,6917.878,95.438,540.873,538.614,0.0
